GLOBALSTAR M067         
1 32263U 07048A   25020.42337615 -.00000049  00000+0  35693-3 0  9997
2 32263  51.9728 108.2994 0001142  71.7801   9.2799 12.40664942791141
GLOBALSTAR M070         
1 32264U 07048B   25020.61706925 -.00000087  00000+0  94900-4 0  9992
2 32264  51.9719 218.0605 0001190  93.9995 308.7801 12.62310845795031
GLOBALSTAR M066         
1 32265U 07048C   25020.37528101 -.00000087  00000+0  77281-4 0  9997
2 32265  51.9673  94.7735 0000925 135.5216 303.2523 12.42169629797019
GLOBALSTAR M068         
1 32266U 07048D   25020.39867961 -.00000093  00000+0  63098-4 0  9998
2 32266  51.9899  32.7619 0001118 159.0541 350.9416 12.62813547798883
GLOBALSTAR M074         
1 37189U 10054B   25020.59868005 -.00000091  00000+0  73776-4 0  9992
2 37189  51.9988 228.4169 0001213  81.5340 313.2040 12.62262138658421
GLOBALSTAR M077         
1 37191U 10054D   25020.62152274 -.00000089  00000+0  82133-4 0  9997
2 37191  52.0046 185.3180 0001089  95.3750 342.6230 12.62270072658517
